[{"OBJECT_NAME":"STARLINK-5952","OBJECT_ID":"2023-083AZ","EPOCH":"2026-03-09T22:00:01.999584","MEAN_MOTION":15.07901533,"ECCENTRICITY":0.00011359,"INCLINATION":43.0007,"RA_OF_ASC_NODE":67.354,"ARG_OF_PERICENTER":303.977,"MEAN_ANOMALY":166.0344,"EPHEMERIS_TYPE":0,"CLASSIFICATION_TYPE":"U","NORAD_CAT_ID":56923,"ELEMENT_SET_NO":999,"REV_AT_EPOCH":578,"BSTAR":0.0043978812,"MEAN_MOTION_DOT":0.0006909,"MEAN_MOTION_DDOT":0},{"OBJECT_NAME":"YUNYAO-1 46","OBJECT_ID":"2025-059D","EPOCH":"2026-03-09T22:34:36.342624","MEAN_MOTION":15.10325082,"ECCENTRICITY":0.00132847,"INCLINATION":97.6091,"RA_OF_ASC_NODE":250.9055,"ARG_OF_PERICENTER":123.8801,"MEAN_ANOMALY":236.3694,"EPHEMERIS_TYPE":0,"CLASSIFICATION_TYPE":"U","NORAD_CAT_ID":63347,"ELEMENT_SET_NO":999,"REV_AT_EPOCH":5331,"BSTAR":0.0002771923,"MEAN_MOTION_DOT":4.488e-5,"MEAN_MOTION_DDOT":0}]
